[{"OBJECT_NAME":"STARLINK-34707","OBJECT_ID":"2025-175C","EPOCH":"2026-03-09T14:31:26.503968","MEAN_MOTION":15.05648935,"ECCENTRICITY":0.0002409,"INCLINATION":97.6027,"RA_OF_ASC_NODE":302.5092,"ARG_OF_PERICENTER":63.5234,"MEAN_ANOMALY":296.6239,"EPHEMERIS_TYPE":0,"CLASSIFICATION_TYPE":"U","NORAD_CAT_ID":65176,"ELEMENT_SET_NO":999,"REV_AT_EPOCH":3262,"BSTAR":0.00022392,"MEAN_MOTION_DOT":3.172e-5,"MEAN_MOTION_DDOT":0},{"OBJECT_NAME":"CZ-4C DEB","OBJECT_ID":"2016-049F","EPOCH":"2026-03-09T07:30:38.295072","MEAN_MOTION":14.98603573,"ECCENTRICITY":0.00676497,"INCLINATION":98.3214,"RA_OF_ASC_NODE":204.4397,"ARG_OF_PERICENTER":163.6943,"MEAN_ANOMALY":196.6477,"EPHEMERIS_TYPE":0,"CLASSIFICATION_TYPE":"U","NORAD_CAT_ID":43601,"ELEMENT_SET_NO":999,"REV_AT_EPOCH":61767,"BSTAR":0.0021508763,"MEAN_MOTION_DOT":0.00027067,"MEAN_MOTION_DDOT":0}]
